CCSDS_OMM_VERS = 2.0
CREATION_DATE  = 
ORIGINATOR     = 

OBJECT_NAME    = PROGRESS-MS 32
OBJECT_ID      = 2025-204A
CENTER_NAME    = EARTH
REF_FRAME      = TEME
TIME_SYSTEM    = UTC
MEAN_ELEMENT_THEORY = SGP/SGP4

EPOCH          = 2025-11-07T04:40:57.562752
MEAN_MOTION    = 15.49813276
ECCENTRICITY   = .00051549
INCLINATION    = 51.6334
RA_OF_ASC_NODE = 318.4356
ARG_OF_PERICENTER = 25.9626
MEAN_ANOMALY   = 334.1621

EPHEMERIS_TYPE = 0
CLASSIFICATION_TYPE = U
NORAD_CAT_ID   = 65586
ELEMENT_SET_NO = 999
REV_AT_EPOCH   = 27
BSTAR          = .21019107E-3
MEAN_MOTION_DOT = .11482E-3
MEAN_MOTION_DDOT = 0

CCSDS_OMM_VERS = 2.0
CREATION_DATE  = 
ORIGINATOR     = 

OBJECT_NAME    = CYGNUS NG-23
OBJECT_ID      = 2025-208A
CENTER_NAME    = EARTH
REF_FRAME      = TEME
TIME_SYSTEM    = UTC
MEAN_ELEMENT_THEORY = SGP/SGP4

EPOCH          = 2025-11-07T04:40:57.562752
MEAN_MOTION    = 15.49813276
ECCENTRICITY   = .00051549
INCLINATION    = 51.6334
RA_OF_ASC_NODE = 318.4356
ARG_OF_PERICENTER = 25.9626
MEAN_ANOMALY   = 334.1621

EPHEMERIS_TYPE = 0
CLASSIFICATION_TYPE = U
NORAD_CAT_ID   = 65616
ELEMENT_SET_NO = 999
REV_AT_EPOCH   = 22
BSTAR          = .21019107E-3
MEAN_MOTION_DOT = .11482E-3
MEAN_MOTION_DDOT = 0

CCSDS_OMM_VERS = 2.0
CREATION_DATE  = 
ORIGINATOR     = 

OBJECT_NAME    = DRAGONFLY
OBJECT_ID      = 1998-067XH
CENTER_NAME    = EARTH
REF_FRAME      = TEME
TIME_SYSTEM    = UTC
MEAN_ELEMENT_THEORY = SGP/SGP4

EPOCH          = 2025-11-07T16:58:10.506720
MEAN_MOTION    = 15.61014545
ECCENTRICITY   = .0004176
INCLINATION    = 51.6306
RA_OF_ASC_NODE = 313.6086
ARG_OF_PERICENTER = 90.9333
MEAN_ANOMALY   = 269.2139

EPHEMERIS_TYPE = 0
CLASSIFICATION_TYPE = U
NORAD_CAT_ID   = 65729
ELEMENT_SET_NO = 999
REV_AT_EPOCH   = 767
BSTAR          = .14615E-2
MEAN_MOTION_DOT = .126744E-2
MEAN_MOTION_DDOT = 0

CCSDS_OMM_VERS = 2.0
CREATION_DATE  = 
ORIGINATOR     = 

OBJECT_NAME    = 1998-067XJ
OBJECT_ID      = 1998-067XJ
CENTER_NAME    = EARTH
REF_FRAME      = TEME
TIME_SYSTEM    = UTC
MEAN_ELEMENT_THEORY = SGP/SGP4

EPOCH          = 2025-11-07T16:54:11.693664
MEAN_MOTION    = 15.71603821
ECCENTRICITY   = .0011449
INCLINATION    = 51.6279
RA_OF_ASC_NODE = 312.0795
ARG_OF_PERICENTER = 72.0764
MEAN_ANOMALY   = 288.1481

EPHEMERIS_TYPE = 0
CLASSIFICATION_TYPE = U
NORAD_CAT_ID   = 65730
ELEMENT_SET_NO = 999
REV_AT_EPOCH   = 769
BSTAR          = .26371E-2
MEAN_MOTION_DOT = .362214E-2
MEAN_MOTION_DDOT = 0

CCSDS_OMM_VERS = 2.0
CREATION_DATE  = 
ORIGINATOR     = 

OBJECT_NAME    = 1998-067XK
OBJECT_ID      = 1998-067XK
CENTER_NAME    = EARTH
REF_FRAME      = TEME
TIME_SYSTEM    = UTC
MEAN_ELEMENT_THEORY = SGP/SGP4

EPOCH          = 2025-11-08T04:32:01.796352
MEAN_MOTION    = 15.58713124
ECCENTRICITY   = .00054
INCLINATION    = 51.6331
RA_OF_ASC_NODE = 311.5785
ARG_OF_PERICENTER = 69.4691
MEAN_ANOMALY   = 290.6881

EPHEMERIS_TYPE = 0
CLASSIFICATION_TYPE = U
NORAD_CAT_ID   = 65731
ELEMENT_SET_NO = 999
REV_AT_EPOCH   = 774
BSTAR          = .10243E-2
MEAN_MOTION_DOT = .80742E-3
MEAN_MOTION_DDOT = 0

CCSDS_OMM_VERS = 2.0
CREATION_DATE  = 
ORIGINATOR     = 

OBJECT_NAME    = RSP-03
OBJECT_ID      = 1998-067XL
CENTER_NAME    = EARTH
REF_FRAME      = TEME
TIME_SYSTEM    = UTC
MEAN_ELEMENT_THEORY = SGP/SGP4

EPOCH          = 2025-11-07T17:22:31.782144
MEAN_MOTION    = 15.59789651
ECCENTRICITY   = .0006143
INCLINATION    = 51.6306
RA_OF_ASC_NODE = 313.7221
ARG_OF_PERICENTER = 69.5291
MEAN_ANOMALY   = 290.6361

EPHEMERIS_TYPE = 0
CLASSIFICATION_TYPE = U
NORAD_CAT_ID   = 65732
ELEMENT_SET_NO = 999
REV_AT_EPOCH   = 768
BSTAR          = .13238E-2
MEAN_MOTION_DOT = .109285E-2
MEAN_MOTION_DDOT = 0

CCSDS_OMM_VERS = 2.0
CREATION_DATE  = 
ORIGINATOR     = 

OBJECT_NAME    = GHS-01
OBJECT_ID      = 1998-067XM
CENTER_NAME    = EARTH
REF_FRAME      = TEME
TIME_SYSTEM    = UTC
MEAN_ELEMENT_THEORY = SGP/SGP4

EPOCH          = 2025-11-07T13:37:39.373248
MEAN_MOTION    = 15.61831291
ECCENTRICITY   = .0004606
INCLINATION    = 51.6312
RA_OF_ASC_NODE = 314.1799
ARG_OF_PERICENTER = 88.6896
MEAN_ANOMALY   = 271.4626

EPHEMERIS_TYPE = 0
CLASSIFICATION_TYPE = U
NORAD_CAT_ID   = 65733
ELEMENT_SET_NO = 999
REV_AT_EPOCH   = 766
BSTAR          = .15829E-2
MEAN_MOTION_DOT = .142011E-2
MEAN_MOTION_DDOT = 0

CCSDS_OMM_VERS = 2.0
CREATION_DATE  = 
ORIGINATOR     = 

OBJECT_NAME    = YOTSUBA-KULOVER
OBJECT_ID      = 1998-067XN
CENTER_NAME    = EARTH
REF_FRAME      = TEME
TIME_SYSTEM    = UTC
MEAN_ELEMENT_THEORY = SGP/SGP4

EPOCH          = 2025-11-07T06:37:37.380576
MEAN_MOTION    = 15.53953751
ECCENTRICITY   = .00026673
INCLINATION    = 51.6324
RA_OF_ASC_NODE = 317.4779
ARG_OF_PERICENTER = 18.7643
MEAN_ANOMALY   = 341.3445

EPHEMERIS_TYPE = 0
CLASSIFICATION_TYPE = U
NORAD_CAT_ID   = 65941
ELEMENT_SET_NO = 999
REV_AT_EPOCH   = 433
BSTAR          = .95169922E-3
MEAN_MOTION_DOT = .6262E-3
MEAN_MOTION_DDOT = 0

CCSDS_OMM_VERS = 2.0
CREATION_DATE  = 
ORIGINATOR     = 

OBJECT_NAME    = BOTAN
OBJECT_ID      = 1998-067XP
CENTER_NAME    = EARTH
REF_FRAME      = TEME
TIME_SYSTEM    = UTC
MEAN_ELEMENT_THEORY = SGP/SGP4

EPOCH          = 2025-11-07T06:23:55.790016
MEAN_MOTION    = 15.55038987
ECCENTRICITY   = .0004757
INCLINATION    = 51.6320
RA_OF_ASC_NODE = 317.4148
ARG_OF_PERICENTER = 34.2370
MEAN_ANOMALY   = 325.8927

EPHEMERIS_TYPE = 0
CLASSIFICATION_TYPE = U
NORAD_CAT_ID   = 65942
ELEMENT_SET_NO = 999
REV_AT_EPOCH   = 433
BSTAR          = .12069711E-2
MEAN_MOTION_DOT = .83017E-3
MEAN_MOTION_DDOT = 0

CCSDS_OMM_VERS = 2.0
CREATION_DATE  = 
ORIGINATOR     = 

OBJECT_NAME    = E-KAGAKU-1
OBJECT_ID      = 1998-067XQ
CENTER_NAME    = EARTH
REF_FRAME      = TEME
TIME_SYSTEM    = UTC
MEAN_ELEMENT_THEORY = SGP/SGP4

EPOCH          = 2025-11-07T06:36:59.145984
MEAN_MOTION    = 15.53952943
ECCENTRICITY   = .00045217
INCLINATION    = 51.6332
RA_OF_ASC_NODE = 317.4755
ARG_OF_PERICENTER = 22.2723
MEAN_ANOMALY   = 337.8463

EPHEMERIS_TYPE = 0
CLASSIFICATION_TYPE = U
NORAD_CAT_ID   = 65943
ELEMENT_SET_NO = 999
REV_AT_EPOCH   = 433
BSTAR          = .93570426E-3
MEAN_MOTION_DOT = .61564E-3
MEAN_MOTION_DDOT = 0

CCSDS_OMM_VERS = 2.0
CREATION_DATE  = 
ORIGINATOR     = 

OBJECT_NAME    = HTV-X1
OBJECT_ID      = 2025-241A
CENTER_NAME    = EARTH
REF_FRAME      = TEME
TIME_SYSTEM    = UTC
MEAN_ELEMENT_THEORY = SGP/SGP4

EPOCH          = 2025-11-07T04:40:57.562752
MEAN_MOTION    = 15.49813276
ECCENTRICITY   = .00051549
INCLINATION    = 51.6334
RA_OF_ASC_NODE = 318.4356
ARG_OF_PERICENTER = 25.9626
MEAN_ANOMALY   = 334.1621

EPHEMERIS_TYPE = 0
CLASSIFICATION_TYPE = U
NORAD_CAT_ID   = 66174
ELEMENT_SET_NO = 999
REV_AT_EPOCH   = 145
BSTAR          = .21019107E-3
MEAN_MOTION_DOT = .11482E-3
MEAN_MOTION_DDOT = 0

