PROGRESS-MS 32          
1 65586U 25204A   25311.19511068  .00011482  00000+0  21019-3 0  9997
2 65586  51.6334 318.4356 0005154  25.9626 334.1621 15.49813276   274
CYGNUS NG-23            
1 65616U 25208A   25311.19511068  .00011482  00000+0  21019-3 0  9995
2 65616  51.6334 318.4356 0005154  25.9626 334.1621 15.49813276   223
DRAGONFLY               
1 65729U 98067XH  25311.70706605  .00126744  00000+0  14615-2 0  9994
2 65729  51.6306 313.6086 0004176  90.9333 269.2139 15.61014545  7678
1998-067XJ              
1 65730U 98067XJ  25311.70430201  .00362214  00000+0  26371-2 0  9998
2 65730  51.6279 312.0795 0011449  72.0764 288.1481 15.71603821  7693
1998-067XK              
1 65731U 98067XK  25312.18890968  .00080742  00000+0  10243-2 0  9996
2 65731  51.6331 311.5785 0005400  69.4691 290.6881 15.58713124  7746
RSP-03                  
1 65732U 98067XL  25311.72397896  .00109285  00000+0  13238-2 0  9999
2 65732  51.6306 313.7221 0006143  69.5291 290.6361 15.59789651  7685
GHS-01                  
1 65733U 98067XM  25311.56781682  .00142011  00000+0  15829-2 0  9994
2 65733  51.6312 314.1799 0004606  88.6896 271.4626 15.61831291  7663
YOTSUBA-KULOVER         
1 65941U 98067XN  25311.27612709  .00062620  00000+0  95170-3 0  9991
2 65941  51.6324 317.4779 0002667  18.7643 341.3445 15.53953751  4334
BOTAN                   
1 65942U 98067XP  25311.26661794  .00083017  00000+0  12070-2 0  9999
2 65942  51.6320 317.4148 0004757  34.2370 325.8927 15.55038987  4332
E-KAGAKU-1              
1 65943U 98067XQ  25311.27568456  .00061564  00000+0  93570-3 0  9990
2 65943  51.6332 317.4755 0004521  22.2723 337.8463 15.53952943  4331
HTV-X1                  
1 66174U 25241A   25311.19511068  .00011482  00000+0  21019-3 0  9992
2 66174  51.6334 318.4356 0005154  25.9626 334.1621 15.49813276  1459
